#aV2022  9 16  0  0  0.00000000     288 DD+AD WGS84 FIT  NGA
## 2227 432000.00000000   300.00000000 59838 0.0000000000000
+   32     1  2  3  4  5  6  7  8  9 10 11 12 13 14 15 16 17
+         18 19 20 21 22 23 24 25 26 27 28 29 30 31 32  0  0
+          0  0  0  0  0  0  0  0  0  0  0  0  0  0  0  0  0
+          0  0  0  0  0  0  0  0  0  0  0  0  0  0  0  0  0
+          0  0  0  0  0  0  0  0  0  0  0  0  0  0  0  0  0
++         2  2  2  2  2  2  2  2  2  2  2  2  2  2  2  2  2
++         2  2  2  2  2  2  2  2  2  2  2  2  2  2  2  0  0
++         0  0  0  0  0  0  0  0  0  0  0  0  0  0  0  0  0
++         0  0  0  0  0  0  0  0  0  0  0  0  0  0  0  0  0
++         0  0  0  0  0  0  0  0  0  0  0  0  0  0  0  0  0
%c cc cc ccc ccc cccc cccc cccc cccc ccccc ccccc ccccc ccccc
%c cc cc ccc ccc cccc cccc cccc cccc ccccc ccccc ccccc ccccc
%f  0.0000000  0.000000000  0.00000000000  0.000000000000000
%f  0.0000000  0.000000000  0.00000000000  0.000000000000000
%i    0    0    0    0      0      0      0      0         0
%i    0    0    0    0      0      0      0      0         0
/*      NGA, ST. LOUIS,MO.                                  
/*   EPHEMERIS COMPUTED FROM 2 DAYS OF DATA                 
/*   EPOCHA v8 SMOOTHER                                     
/*   G2139 IERS2010 SATIGS SATAPC                           
*  2022  9 16 14  5  0.00000000
P  1  10684.553179  13357.516327 -20722.304386    282.942532                    
V  1 -25423.813156   1185.255292 -12204.978099     -0.065114                    
P  2  -1410.196576 -15331.576770  22297.882614   -645.831329                    
V  2  26548.362797  -3252.486031   -407.291550      0.013125                    
P  3  11503.488798  23634.026357  -4318.312872   -351.886634                    
V  3  -4711.866028  -3290.350818 -31376.183194     -0.061784                    
P  4   3065.115361  19543.719297  17680.793276   -117.855033                    
V  4 -12571.662964  18707.713483 -18596.715214      0.056280                    
P  5  -2932.263572 -21890.342546  14481.580238    -96.884347                    
V  5  12519.848359  14125.499262  23725.980047     -0.014093                    
P  6  23836.569918  -7096.622797   9492.647969    462.716831                    
V  6  11957.604739   1273.596103 -29197.966597      0.124391                    
P  7  23690.929802   6890.339627  10876.487197    307.091503                    
V  7 -12951.850963   2723.569259  27069.439972     -0.030564                    
P  8  -3704.918579  23947.239728 -10483.850257    -84.863895                    
V  8  -8350.852323  10790.706407  28051.327134     -0.015950                    
P  9  12321.954760   9377.647917  21501.396036   -295.345620                    
V  9 -12584.926809  24458.788427  -3481.392465      0.047825                    
P 10 -17615.952614  -2885.239004 -19619.109494     -3.534055                    
V 10 -12696.232709 -21672.327767  14178.349719     -0.016431                    
P 11  15348.999722 -12229.596535  17879.722274    -16.969273                    
V 11  22688.878885   1852.475943 -18243.084352     -0.028970                    
P 12  -9136.408967 -24509.695723  -5185.919925   -279.259189                    
V 12   5072.399032   4339.197887 -30936.145099     -0.060119                    
P 13  12569.964800 -22891.903933  -4423.340584    388.636294                    
V 13   5297.296722  -2897.477707  31403.228733      0.072641                    
P 14  18270.268431   4830.871968 -18698.255557   -103.114741                    
V 14  10667.376474  21276.048514  15803.907997      0.027697                    
P 15    372.372870 -24313.170226 -10757.290863    -28.530656                    
V 15   7699.243089 -11229.007142  27033.391221      0.031047                    
P 16  -4730.889841  18259.314611  18232.625050   -524.262973                    
V 16 -12466.548194 -20428.259360  17413.168873     -0.010343                    
P 17  17908.777171  -5662.061087 -18365.491435    659.717372                    
V 17 -11398.975444  21351.274274 -17232.917357      0.038160                    
P 18 -24121.215012  -5982.215747   9556.583991     46.573833                    
V 18  12036.552831  -2367.241598  28744.124548     -0.127769                    
P 19  19101.576350 -14070.151405 -11920.289478    211.481545                    
V 19  -6524.026951  13475.490421 -27146.515451      0.050522                    
P 20   8108.610347 -13919.792080  21153.117077    485.952910                    
V 20  18223.759576  19754.769639   5787.904650     -0.031025                    
P 21   1442.794198  14849.282209 -21347.453409    159.371235                    
V 21 -28435.573647   3138.109296    966.293104     -0.004574                    
P 22 -18070.862609  16994.601419  -8824.591093    328.903583                    
V 22   4003.198246 -11488.837104 -29126.290855      0.068217                    
P 23 -19403.170591 -12418.156196 -13343.372898    -39.787940                    
V 23  -7834.021239 -15048.488173  25294.980058     -0.007827                    
P 24  -6828.025166 -14959.344697 -21229.908442    133.481011                    
V 24  26016.556869  -3661.244884  -5455.423789     -0.131132                    
P 25 -17252.503170 -19539.110728   5514.012939    372.646203                    
V 25  -1685.866921  -7626.613746 -30419.899284      0.040809                    
P 26 -11479.792948  10840.057916  21251.579780    228.757679                    
V 26 -16316.635511 -21902.177899   2666.248977      0.016428                    
P 27 -12508.245658  23171.999088    541.367723    210.843391                    
V 27  -2074.816827  -2159.756248  32232.849883     -0.041964                    
P 28  14209.485891  -4687.973824 -21425.301818    337.827039                    
V 28  12592.092933  25480.947092   2946.000098     -0.024283                    
P 29 -10500.866007 -10819.049350  21812.835387   -552.038948                    
V 29  14996.508547 -23360.885236  -4438.553999     -0.031919                    
P 30  26689.306954   -766.222747    -57.012607   -536.988727                    
V 30    271.607236   3374.423497  31030.942272     -0.002319                    
P 31 -23568.519719   7565.508755  10088.278357   -193.554785                    
V 31 -12916.300093  -2108.945693 -27741.902291     -0.013472                    
P 32 -18053.551763   8951.163448 -17053.390631   -235.020681                    
V 32   8343.751019 -20474.869427 -19600.732774     -0.113307                    
EOF
